{
  "norad_id": 62423,
  "name": "STARLINK-32680",
  "history": [
    {
      "epoch": "2026-04-17T16:08:46.518432Z",
      "apogee_km": 484.497026743652,
      "perigee_km": 481.5799293773998,
      "latitude_deg": 5.594957282714771e-05,
      "longitude_deg": 6.087787318528791,
      "height_km": 482.8655572217654,
      "semi_major_axis_km": 6861.175478060526,
      "eccentricity": 0.00021258,
      "inclination_deg": 43.0023,
      "raan_deg": 94.0843,
      "arg_perigee_deg": 268.0524,
      "mean_anomaly_deg": 92.0085,
      "mean_motion_rev_day": 15.27583546
    },
    {
      "epoch": "2026-04-18T15:41:06.810720Z",
      "apogee_km": 484.5154743774565,
      "perigee_km": 481.4636452836439,
      "latitude_deg": 9.600701949444964e-06,
      "longitude_deg": 6.499575916317729,
      "height_km": 482.734880447198,
      "semi_major_axis_km": 6861.12655983055,
      "eccentricity": 0.0002224,
      "inclination_deg": 43.0036,
      "raan_deg": 88.5474,
      "arg_perigee_deg": 271.2174,
      "mean_anomaly_deg": 88.8423,
      "mean_motion_rev_day": 15.27599883
    },
    {
      "epoch": "2026-04-19T15:13:27.820992Z",
      "apogee_km": 483.9998920602402,
      "perigee_km": 482.0444616948298,
      "latitude_deg": -4.4569830651201576e-05,
      "longitude_deg": 6.905455207734413,
      "height_km": 482.7360980947318,
      "semi_major_axis_km": 6861.159176877535,
      "eccentricity": 0.0001425,
      "inclination_deg": 43.0011,
      "raan_deg": 83.0076,
      "arg_perigee_deg": 273.6906,
      "mean_anomaly_deg": 86.3782,
      "mean_motion_rev_day": 15.2758899
    },
    {
      "epoch": "2026-04-20T08:29:11.599872Z",
      "apogee_km": 484.1350943919697,
      "perigee_km": 482.02760256405054,
      "latitude_deg": -4.531681759921688e-06,
      "longitude_deg": 103.20345290974139,
      "height_km": 482.78453108123887,
      "semi_major_axis_km": 6861.21834847801,
      "eccentricity": 0.00015358,
      "inclination_deg": 43.0028,
      "raan_deg": 78.9469,
      "arg_perigee_deg": 274.0243,
      "mean_anomaly_deg": 86.0433,
      "mean_motion_rev_day": 15.27569229
    },
    {
      "epoch": "2026-04-21T06:27:23.026464Z",
      "apogee_km": 484.0286946737033,
      "perigee_km": 482.0098680494748,
      "latitude_deg": -1.5738461873999456e-05,
      "longitude_deg": 127.58395872829311,
      "height_km": 482.75037677499506,
      "semi_major_axis_km": 6861.156281361588,
      "eccentricity": 0.00014712,
      "inclination_deg": 43.0032,
      "raan_deg": 73.7773,
      "arg_perigee_deg": 272.6135,
      "mean_anomaly_deg": 87.4548,
      "mean_motion_rev_day": 15.27589957
    },
    {
      "epoch": "2026-04-22T05:59:43.722240Z",
      "apogee_km": 483.8153669458352,
      "perigee_km": 482.1925698839859,
      "latitude_deg": -6.247940112101494e-06,
      "longitude_deg": 127.99201817361123,
      "height_km": 482.5231494652378,
      "semi_major_axis_km": 6861.14096841491,
      "eccentricity": 0.00011826,
      "inclination_deg": 43.0028,
      "raan_deg": 68.2383,
      "arg_perigee_deg": 288.5128,
      "mean_anomaly_deg": 71.5595,
      "mean_motion_rev_day": 15.27595071
    },
    {
      "epoch": "2026-04-23T05:32:04.517376Z",
      "apogee_km": 484.02700046497375,
      "perigee_km": 482.06223249727736,
      "latitude_deg": -2.0926454114568922e-05,
      "longitude_deg": 128.39993700196072,
      "height_km": 482.6420452227365,
      "semi_major_axis_km": 6861.181616481125,
      "eccentricity": 0.00014318,
      "inclination_deg": 43.0031,
      "raan_deg": 62.6996,
      "arg_perigee_deg": 280.5372,
      "mean_anomaly_deg": 79.5318,
      "mean_motion_rev_day": 15.27581496
    },
    {
      "epoch": "2026-04-24T20:45:59.262336Z",
      "apogee_km": 483.57442784134037,
      "perigee_km": 482.4601763826786,
      "latitude_deg": 2.4837423996352245e-05,
      "longitude_deg": -110.92161614279291,
      "height_km": 482.8764864100419,
      "semi_major_axis_km": 6861.15430211201,
      "eccentricity": 8.12e-05,
      "inclination_deg": 43.0024,
      "raan_deg": 53.4673,
      "arg_perigee_deg": 261.4583,
      "mean_anomaly_deg": 98.6177,
      "mean_motion_rev_day": 15.27590618
    },
    {
      "epoch": "2026-04-25T12:27:32.976288Z",
      "apogee_km": 483.58004158719723,
      "perigee_km": 482.4699055798719,
      "latitude_deg": -3.2298135437865385e-05,
      "longitude_deg": 9.349871760960712,
      "height_km": 482.61224147923576,
      "semi_major_axis_km": 6861.161973583535,
      "eccentricity": 8.09e-05,
      "inclination_deg": 43.0036,
      "raan_deg": 49.7738,
      "arg_perigee_deg": 289.941,
      "mean_anomaly_deg": 70.1354,
      "mean_motion_rev_day": 15.27588056
    },
    {
      "epoch": "2026-04-26T19:50:40.934688Z",
      "apogee_km": 484.39348344098835,
      "perigee_km": 481.6823587826593,
      "latitude_deg": -3.296667204380284e-05,
      "longitude_deg": -110.10624701296436,
      "height_km": 482.8769505650494,
      "semi_major_axis_km": 6861.174921111823,
      "eccentricity": 0.00019757,
      "inclination_deg": 43.0023,
      "raan_deg": 42.3898,
      "arg_perigee_deg": 267.3944,
      "mean_anomaly_deg": 92.6681,
      "mean_motion_rev_day": 15.27583732
    },
    {
      "epoch": "2026-04-27T11:32:15.874656Z",
      "apogee_km": 484.17679184665667,
      "perigee_km": 481.98394677542365,
      "latitude_deg": 1.6699829308087335e-05,
      "longitude_deg": 10.159733033458078,
      "height_km": 482.80348814694014,
      "semi_major_axis_km": 6861.21736931104,
      "eccentricity": 0.0001598,
      "inclination_deg": 43.0043,
      "raan_deg": 38.6958,
      "arg_perigee_deg": 272.835,
      "mean_anomaly_deg": 87.2319,
      "mean_motion_rev_day": 15.27569556
    },
    {
      "epoch": "2026-04-28T18:55:22.569024Z",
      "apogee_km": 483.8617480797566,
      "perigee_km": 482.2740652643515,
      "latitude_deg": -4.516507655153912e-05,
      "longitude_deg": -109.29296922304495,
      "height_km": 482.7661773138012,
      "semi_major_axis_km": 6861.204906672054,
      "eccentricity": 0.0001157,
      "inclination_deg": 43.001,
      "raan_deg": 31.31,
      "arg_perigee_deg": 275.6641,
      "mean_anomaly_deg": 84.4078,
      "mean_motion_rev_day": 15.27573718
    },
    {
      "epoch": "2026-04-29T10:36:56.850624Z",
      "apogee_km": 484.0390586172798,
      "perigee_km": 482.04423953684636,
      "latitude_deg": -1.9927590715693e-05,
      "longitude_deg": 10.97933525704665,
      "height_km": 482.7598431142782,
      "semi_major_axis_km": 6861.178649077063,
      "eccentricity": 0.00014537,
      "inclination_deg": 43.0,
      "raan_deg": 27.6196,
      "arg_perigee_deg": 273.3659,
      "mean_anomaly_deg": 86.7026,
      "mean_motion_rev_day": 15.27582487
    },
    {
      "epoch": "2026-04-30T10:09:17.644896Z",
      "apogee_km": 483.73104771390354,
      "perigee_km": 482.32711591024326,
      "latitude_deg": -1.5944941052865175e-05,
      "longitude_deg": 11.384879771830455,
      "height_km": 482.6048818494534,
      "semi_major_axis_km": 6861.166081812074,
      "eccentricity": 0.00010231,
      "inclination_deg": 43.0012,
      "raan_deg": 22.0785,
      "arg_perigee_deg": 286.6138,
      "mean_anomaly_deg": 73.4601,
      "mean_motion_rev_day": 15.27586684
    },
    {
      "epoch": "2026-05-02T09:13:58.859328Z",
      "apogee_km": 483.60899231046915,
      "perigee_km": 482.4563158085866,
      "latitude_deg": 2.640500848948251e-05,
      "longitude_deg": 12.20206617539495,
      "height_km": 482.6841116062857,
      "semi_major_axis_km": 6861.169654059528,
      "eccentricity": 8.4e-05,
      "inclination_deg": 43.0009,
      "raan_deg": 11.0008,
      "arg_perigee_deg": 282.5115,
      "mean_anomaly_deg": 77.5643,
      "mean_motion_rev_day": 15.27585491
    },
    {
      "epoch": "2026-05-03T08:46:20.222112Z",
      "apogee_km": 484.1692524556647,
      "perigee_km": 481.9010861599354,
      "latitude_deg": -5.2157575353021745e-05,
      "longitude_deg": 12.608544956925394,
      "height_km": 482.6641577720877,
      "semi_major_axis_km": 6861.1721693078,
      "eccentricity": 0.00016529,
      "inclination_deg": 42.999,
      "raan_deg": 5.4631,
      "arg_perigee_deg": 277.4895,
      "mean_anomaly_deg": 82.5768,
      "mean_motion_rev_day": 15.27584651
    },
    {
      "epoch": "2026-05-04T08:18:40.885056Z",
      "apogee_km": 484.18566234652553,
      "perigee_km": 481.84189324083036,
      "latitude_deg": 3.5101598015320465e-05,
      "longitude_deg": 13.017123891387856,
      "height_km": 482.6401113368087,
      "semi_major_axis_km": 6861.150777793678,
      "eccentricity": 0.0001708,
      "inclination_deg": 43.0009,
      "raan_deg": 359.9244,
      "arg_perigee_deg": 277.3896,
      "mean_anomaly_deg": 82.6762,
      "mean_motion_rev_day": 15.27591795
    }
  ]
}